NORAD_CAT_ID,OBJECT_NAME,OBJECT_TYPE,EPOCH,MEAN_MOTION,ECCENTRICITY,INCLINATION,RA_OF_ASC_NODE,ARG_OF_PERICENTER,MEAN_ANOMALY,BSTAR,MEAN_MOTION_DOT,MEAN_MOTION_DDOT,TLE_LINE0,TLE_LINE1,TLE_LINE2,SEMIMAJOR_AXIS,PERIOD,APOGEE,PERIGEE,DECAYED
54777.0,STARLINK-5468,PAYLOAD,2024-06-29 13:10:32,15.08822247,0.0001366,53.2178,298.86,113.0909,247.0227,-5.9584e-05,-1.236e-05,0.0,0 STARLINK-5468,1 54777U 22175V   24181.54898514 -.00001236  00000-0 -59584-4 0  9996,2 54777  53.2178 298.8600 0001366 113.0909 247.0227 15.08822247 84443,6917.935,95.439,540.745,538.855,0.0
54777.0,STARLINK-5468,PAYLOAD,2024-06-29 14:45:55,15.08823372,0.0001064,53.217,298.5656,95.5653,264.546,-7.5473e-05,-1.488e-05,0.0,0 STARLINK-5468,1 54777U 22175V   24181.61522628 -.00001488  00000-0 -75473-4 0  9998,2 54777  53.2170 298.5656 0001064  95.5653 264.5460 15.08823372 86612,6917.931,95.439,540.532,539.06,0.0
54777.0,STARLINK-5468,PAYLOAD,2024-06-30 00:18:13,15.08835108,0.0001223,53.2174,296.7806,99.1583,260.9547,2.249e-05,7e-07,0.0,0 STARLINK-5468,1 54777U 22175V   24182.01266002  .00000070  00000-0  22490-4 0  9999,2 54777  53.2174 296.7806 0001223  99.1583 260.9547 15.08835108 84515,6917.895,95.438,540.606,538.914,0.0
54777.0,STARLINK-5468,PAYLOAD,2024-06-30 13:01:19,15.0883571,0.0001462,53.2174,294.4027,97.1768,262.9391,-0.00010953,-2.03e-05,0.0,0 STARLINK-5468,1 54777U 22175V   24182.54258580 -.00002030  00000-0 -10953-3 0  9999,2 54777  53.2174 294.4027 0001462  97.1768 262.9391 15.08835710 86759,6917.894,95.438,540.77,538.747,0.0
54777.0,STARLINK-5468,PAYLOAD,2024-06-30 14:36:42,15.08836665,0.00015,53.2177,294.1058,103.1366,256.9793,-0.00010095,-1.894e-05,0.0,0 STARLINK-5468,1 54777U 22175V   24182.60882492 -.00001894  00000-0 -10095-3 0  9995,2 54777  53.2177 294.1058 0001500 103.1366 256.9793 15.08836665 86768,6917.891,95.438,540.793,538.718,0.0
54777.0,STARLINK-5468,PAYLOAD,2024-07-01 12:52:06,15.08826634,0.0001146,53.2159,289.9389,117.0414,243.0695,0.00018061,2.587e-05,0.0,0 STARLINK-5468,1 54777U 22175V   24183.53618382  .00002587  00000-0  18061-3 0  9992,2 54777  53.2159 289.9389 0001146 117.0414 243.0695 15.08826634 84740,6917.921,95.438,540.579,538.993,0.0
54777.0,STARLINK-5468,PAYLOAD,2024-07-01 14:27:29,15.08827804,8.58e-05,53.2148,289.6423,98.4792,261.6297,0.00020012,2.898e-05,0.0,0 STARLINK-5468,1 54777U 22175V   24183.60242355  .00002898  00000-0  20012-3 0  9997,2 54777  53.2148 289.6423 0000858  98.4792 261.6297 15.08827804 86919,6917.918,95.438,540.376,539.189,0.0
54777.0,STARLINK-5468,PAYLOAD,2024-07-01 23:59:47,15.08839164,7.19e-05,53.2143,287.8579,86.8396,273.2678,0.00027027,4.016e-05,0.0,0 STARLINK-5468,1 54777U 22175V   24183.99985543  .00004016  00000-0  27027-3 0  9999,2 54777  53.2143 287.8579 0000719  86.8396 273.2678 15.08839164 84814,6917.883,95.438,540.245,539.251,0.0
54777.0,STARLINK-5468,PAYLOAD,2024-07-02 12:42:54,15.08828441,0.0001012,53.2157,285.4782,100.3144,259.7962,1.3033e-06,-2.67e-06,0.0,0 STARLINK-5468,1 54777U 22175V   24184.52979305 -.00000267  00000-0  13033-5 0  9997,2 54777  53.2157 285.4782 0001012 100.3144 259.7962 15.08828441 84898,6917.916,95.438,540.481,539.081,0.0
54777.0,STARLINK-5468,PAYLOAD,2024-07-02 14:18:16,15.08840332,9.69e-05,53.2151,285.1804,124.2456,235.8627,0.00010014,1.306e-05,0.0,0 STARLINK-5468,1 54777U 22175V   24184.59602186  .00001306  00000-0  10014-3 0  9992,2 54777  53.2151 285.1804 0000969 124.2456 235.8627 15.08840332 87063,6917.879,95.438,540.415,539.074,0.0
54777.0,STARLINK-5468,PAYLOAD,2024-07-03 14:09:03,15.08844711,9.38e-05,53.216,280.7218,88.4054,271.7046,0.00010769,1.427e-05,0.0,0 STARLINK-5468,1 54777U 22175V   24185.58962064  .00001427  00000-0  10769-3 0  9997,2 54777  53.2160 280.7218 0000938  88.4054 271.7046 15.08844711 87210,6917.866,95.437,540.38,539.082,0.0
54777.0,STARLINK-5468,PAYLOAD,2024-07-03 23:41:21,15.08851281,0.0001005,53.2153,278.9384,94.5432,265.5675,6.8349e-05,8e-06,0.0,0 STARLINK-5468,1 54777U 22175V   24185.98705610  .00000800  00000-0  68349-4 0  9995,2 54777  53.2153 278.9384 0001005  94.5432 265.5675 15.08851281 85115,6917.846,95.437,540.406,539.016,0.0
54777.0,STARLINK-5468,PAYLOAD,2024-07-04 10:49:04,15.08831372,0.0001497,53.2155,276.8558,95.0934,265.0229,9.1448e-05,1.167e-05,0.0,0 STARLINK-5468,1 54777U 22175V   24186.45074930  .00001167  00000-0  91448-4 0  9995,2 54777  53.2155 276.8558 0001497  95.0934 265.0229 15.08831372 85181,6917.907,95.438,540.807,538.736,0.0
54777.0,STARLINK-5468,PAYLOAD,2024-07-04 12:24:27,15.0883475,0.0001132,53.216,276.5597,95.103,265.0092,1.1402e-05,-1.06e-06,0.0,0 STARLINK-5468,1 54777U 22175V   24186.51698976 -.00000106  00000-0  11402-4 0  9999,2 54777  53.2160 276.5597 0001132  95.1030 265.0092 15.08834750 87353,6917.896,95.438,540.545,538.978,0.0
54777.0,STARLINK-5468,PAYLOAD,2024-07-05 12:15:14,15.08846138,0.0001084,53.2158,272.1001,89.7582,270.3534,0.00011265,1.506e-05,0.0,0 STARLINK-5468,1 54777U 22175V   24187.51057994  .00001506  00000-0  11265-3 0  9999,2 54777  53.2158 272.1001 0001084  89.7582 270.3534 15.08846138 85349,6917.862,95.437,540.477,538.977,0.0
54777.0,STARLINK-5468,PAYLOAD,2024-07-06 12:06:01,15.08831621,0.0001203,53.2161,267.6392,98.7207,261.3922,3.0462e-05,1.97e-06,0.0,0 STARLINK-5468,1 54777U 22175V   24188.50418862  .00000197  00000-0  30462-4 0  9990,2 54777  53.2161 267.6392 0001203  98.7207 261.3922 15.08831621 85490,6917.906,95.438,540.603,538.939,0.0
54777.0,STARLINK-5468,PAYLOAD,2024-07-07 11:56:48,15.08839783,0.0001199,53.216,263.1785,89.4071,270.7058,1.1877e-05,-9.9e-07,0.0,0 STARLINK-5468,1 54777U 22175V   24189.49778596 -.00000099  00000-0  11877-4 0  9993,2 54777  53.2160 263.1785 0001199  89.4071 270.7058 15.08839783 85644,6917.881,95.438,540.576,538.917,0.0
54777.0,STARLINK-5468,PAYLOAD,2024-07-07 13:32:11,15.08840947,0.0001217,53.2163,262.8816,89.6713,270.4419,2.2331e-05,6.8e-07,0.0,0 STARLINK-5468,1 54777U 22175V   24189.56402489  .00000068  00000-0  22331-4 0  9998,2 54777  53.2163 262.8816 0001217  89.6713 270.4419 15.08840947 87817,6917.877,95.437,540.584,538.901,0.0
54777.0,STARLINK-5468,PAYLOAD,2024-07-08 11:47:35,15.0883514,0.0001269,53.2168,258.7183,89.0281,271.0856,0.00011932,1.611e-05,0.0,0 STARLINK-5468,1 54777U 22175V   24190.49138706  .00001611  00000-0  11932-3 0  9999,2 54777  53.2168 258.7183 0001269  89.0281 271.0856 15.08835140 87950,6917.895,95.438,540.638,538.882,0.0
54777.0,STARLINK-5468,PAYLOAD,2024-07-08 21:19:54,15.0884423,0.0001312,53.2171,256.9335,88.7019,271.4123,0.00015651,2.204e-05,0.0,0 STARLINK-5468,1 54777U 22175V   24190.88882062  .00002204  00000-0  15651-3 0  9994,2 54777  53.2171 256.9335 0001312  88.7019 271.4123 15.08844230 88016,6917.867,95.437,540.64,538.825,0.0
54777.0,STARLINK-5468,PAYLOAD,2024-07-09 11:38:23,15.08836348,0.0001386,53.2164,254.258,84.2519,275.8631,4.1432e-06,-2.22e-06,0.0,0 STARLINK-5468,1 54777U 22175V   24191.48499183 -.00000222  00000-0  41432-5 0  9996,2 54777  53.2164 254.2580 0001386  84.2519 275.8631 15.08836348 85940,6917.892,95.438,540.715,538.798,0.0
54777.0,STARLINK-5468,PAYLOAD,2024-07-09 14:49:09,15.08836222,0.0001431,53.2164,253.6623,85.1963,274.9192,1.0474e-05,-1.21e-06,0.0,0 STARLINK-5468,1 54777U 22175V   24191.61747191 -.00000121  00000-0  10474-4 0  9995,2 54777  53.2164 253.6623 0001431  85.1963 274.9192 15.08836222 88121,6917.892,95.438,540.747,538.767,0.0
54777.0,STARLINK-5468,PAYLOAD,2024-07-10 13:04:33,15.0884196,0.0001374,53.2164,249.4982,74.968,285.1464,4.0532e-05,3.57e-06,0.0,0 STARLINK-5468,1 54777U 22175V   24192.54482915  .00000357  00000-0  40532-4 0  9996,2 54777  53.2164 249.4982 0001374  74.9680 285.1464 15.08841960 88266,6917.874,95.437,540.69,538.789,0.0
54777.0,STARLINK-5468,PAYLOAD,2024-07-11 09:44:33,15.08841558,0.0001316,53.2159,245.633,89.5188,270.5955,9.9793e-05,1.301e-05,0.0,0 STARLINK-5468,1 54777U 22175V   24193.40594744  .00001301  00000-0  99793-4 0  9999,2 54777  53.2159 245.6330 0001316  89.5188 270.5955 15.08841558 88396,6917.876,95.437,540.651,538.83,0.0
54777.0,STARLINK-5468,PAYLOAD,2024-07-11 20:52:15,15.08844656,0.0001297,53.2158,243.5512,91.3864,268.7277,0.00011771,1.586e-05,0.0,0 STARLINK-5468,1 54777U 22175V   24193.86962442  .00001586  00000-0  11771-3 0  9997,2 54777  53.2158 243.5512 0001297  91.3864 268.7277 15.08844656 88460,6917.866,95.437,540.628,538.834,0.0
54777.0,STARLINK-5468,PAYLOAD,2024-07-12 12:46:07,15.08839121,0.000155,53.217,240.5772,98.7518,261.365,5.0211e-05,5.11e-06,0.0,0 STARLINK-5468,1 54777U 22175V   24194.53203100  .00000511  00000-0  50211-4 0  9991,2 54777  53.2170 240.5772 0001550  98.7518 261.3650 15.08839121 86405,6917.883,95.438,540.82,538.676,0.0
54777.0,STARLINK-5468,PAYLOAD,2024-07-12 20:43:03,15.08841214,0.0001577,53.2171,239.0908,98.935,261.182,5.0349e-05,5.13e-06,0.0,0 STARLINK-5468,1 54777U 22175V   24194.86322951  .00000513  00000-0  50349-4 0  9997,2 54777  53.2171 239.0908 0001577  98.9350 261.1820 15.08841214 88613,6917.877,95.437,540.833,538.651,0.0
54777.0,STARLINK-5468,PAYLOAD,2024-07-13 09:26:08,15.08841863,0.0001534,53.2167,236.712,97.0237,263.093,2.4766e-05,1.06e-06,0.0,0 STARLINK-5468,1 54777U 22175V   24195.39314895  .00000106  00000-0  24766-4 0  9996,2 54777  53.2167 236.7120 0001534  97.0237 263.0930 15.08841863 88696,6917.875,95.437,540.801,538.678,0.0
54777.0,STARLINK-5468,PAYLOAD,2024-07-14 09:16:55,15.08839785,0.0001418,53.2159,232.2531,90.4,269.7155,0.00010773,1.427e-05,0.0,0 STARLINK-5468,1 54777U 22175V   24196.38674873  .00001427  00000-0  10773-3 0  9990,2 54777  53.2159 232.2531 0001418  90.4000 269.7155 15.08839785 86689,6917.881,95.438,540.727,538.765,0.0
54777.0,STARLINK-5468,PAYLOAD,2024-07-15 09:07:42,15.08832701,0.0001348,53.2155,227.7925,89.1893,270.9254,1.0083e-05,-1.27e-06,0.0,0 STARLINK-5468,1 54777U 22175V   24197.38035641 -.00000127  00000-0  10083-4 0  9997,2 54777  53.2155 227.7925 0001348  89.1893 270.9254 15.08832701 86830,6917.903,95.438,540.7,538.835,0.0
